{
 "generated_at": "2026-06-17T09:51:32Z",
 "sources": [
  {
   "name": "CelesTrak",
   "url": "https://celestrak.org/NORAD/elements/",
   "license": "frei verfügbar; Attribution. Ursprünglich USSPACECOM/Space-Track."
  },
  {
   "name": "GCAT (J. McDowell, planet4589.org)",
   "url": "https://planet4589.org/space/gcat/",
   "license": "CC-BY 4.0"
  }
 ],
 "satellites": [
  {
   "norad": 40376,
   "name": "SMAP",
   "intl": "2015-003A",
   "group": "resource",
   "gcat": {
    "class": "C",
    "category": "EOSCI",
    "owner": "JPL",
    "state": "US"
   },
   "omm": {
    "OBJECT_NAME": "SMAP",
    "OBJECT_ID": "2015-003A",
    "EPOCH": "2026-06-17T03:33:30.420000",
    "MEAN_MOTION": 14.63366622,
    "ECCENTRICITY": 0.0001328,
    "INCLINATION": 98.1276,
    "RA_OF_ASC_NODE": 175.2433,
    "ARG_OF_PERICENTER": 96.8431,
    "MEAN_ANOMALY": 263.2922,
    "EPHEMERIS_TYPE": 0,
    "CLASSIFICATION_TYPE": "U",
    "NORAD_CAT_ID": 40376,
    "ELEMENT_SET_NO": 999,
    "REV_AT_EPOCH": 60761,
    "BSTAR": 0.000073834,
    "MEAN_MOTION_DOT": 0.00000335,
    "MEAN_MOTION_DDOT": 0
   }
  },
  {
   "norad": 36036,
   "name": "SMOS",
   "intl": "2009-059A",
   "group": "resource",
   "gcat": {
    "class": "C",
    "category": "EOSCI",
    "owner": "ESA",
    "state": "I-ESA"
   },
   "omm": {
    "OBJECT_NAME": "SMOS",
    "OBJECT_ID": "2009-059A",
    "EPOCH": "2026-06-17T01:12:46.442592",
    "MEAN_MOTION": 14.39772531,
    "ECCENTRICITY": 0.0001326,
    "INCLINATION": 98.4424,
    "RA_OF_ASC_NODE": 355.3874,
    "ARG_OF_PERICENTER": 88.5935,
    "MEAN_ANOMALY": 271.5405,
    "EPHEMERIS_TYPE": 0,
    "CLASSIFICATION_TYPE": "U",
    "NORAD_CAT_ID": 36036,
    "ELEMENT_SET_NO": 999,
    "REV_AT_EPOCH": 87343,
    "BSTAR": 0.000073438,
    "MEAN_MOTION_DOT": 0.00000187,
    "MEAN_MOTION_DDOT": 0
   }
  },
  {
   "norad": 38755,
   "name": "SPOT 6",
   "intl": "2012-047A",
   "group": "resource",
   "gcat": {
    "class": "B",
    "category": "IMG",
    "owner": "SPOT",
    "state": "F"
   },
   "omm": {
    "OBJECT_NAME": "SPOT 6",
    "OBJECT_ID": "2012-047A",
    "EPOCH": "2026-06-17T04:44:52.408320",
    "MEAN_MOTION": 14.58562801,
    "ECCENTRICITY": 0.0001496,
    "INCLINATION": 98.2122,
    "RA_OF_ASC_NODE": 235.5065,
    "ARG_OF_PERICENTER": 93.1055,
    "MEAN_ANOMALY": 267.0316,
    "EPHEMERIS_TYPE": 0,
    "CLASSIFICATION_TYPE": "U",
    "NORAD_CAT_ID": 38755,
    "ELEMENT_SET_NO": 999,
    "REV_AT_EPOCH": 73305,
    "BSTAR": 0.000035097,
    "MEAN_MOTION_DOT": 0.00000117,
    "MEAN_MOTION_DDOT": 0
   }
  },
  {
   "norad": 40053,
   "name": "SPOT 7",
   "intl": "2014-034A",
   "group": "resource",
   "gcat": {
    "class": null,
    "category": null,
    "owner": null,
    "state": null
   },
   "omm": {
    "OBJECT_NAME": "SPOT 7",
    "OBJECT_ID": "2014-034A",
    "EPOCH": "2026-06-17T04:21:28.341792",
    "MEAN_MOTION": 14.60958328,
    "ECCENTRICITY": 0.0001206,
    "INCLINATION": 98.063,
    "RA_OF_ASC_NODE": 230.6732,
    "ARG_OF_PERICENTER": 92.4183,
    "MEAN_ANOMALY": 267.7156,
    "EPHEMERIS_TYPE": 0,
    "CLASSIFICATION_TYPE": "U",
    "NORAD_CAT_ID": 40053,
    "ELEMENT_SET_NO": 999,
    "REV_AT_EPOCH": 63713,
    "BSTAR": 0.000067318,
    "MEAN_MOTION_DOT": 0.00000285,
    "MEAN_MOTION_DDOT": 0
   }
  },
  {
   "norad": 37841,
   "name": "SRMSAT",
   "intl": "2011-058D",
   "group": "resource",
   "gcat": {
    "class": "A",
    "category": "TECH",
    "owner": "SRMU",
    "state": "IN"
   },
   "omm": {
    "OBJECT_NAME": "SRMSAT",
    "OBJECT_ID": "2011-058D",
    "EPOCH": "2026-06-17T02:08:22.947072",
    "MEAN_MOTION": 14.11575544,
    "ECCENTRICITY": 0.0011791,
    "INCLINATION": 19.9723,
    "RA_OF_ASC_NODE": 60.06,
    "ARG_OF_PERICENTER": 202.5356,
    "MEAN_ANOMALY": 269.2197,
    "EPHEMERIS_TYPE": 0,
    "CLASSIFICATION_TYPE": "U",
    "NORAD_CAT_ID": 37841,
    "ELEMENT_SET_NO": 999,
    "REV_AT_EPOCH": 75780,
    "BSTAR": 0.000049079,
    "MEAN_MOTION_DOT": 0.00000356,
    "MEAN_MOTION_DDOT": 0
   }
  },
  {
   "norad": 53815,
   "name": "STRIX-1",
   "intl": "2022-113A",
   "group": "sar",
   "gcat": {
    "class": "B",
    "category": "IMG-R",
    "owner": "SYNSP",
    "state": "J"
   },
   "omm": {
    "OBJECT_NAME": "STRIX-1",
    "OBJECT_ID": "2022-113A",
    "EPOCH": "2026-06-17T04:25:21.290016",
    "MEAN_MOTION": 15.3979659,
    "ECCENTRICITY": 0.000346,
    "INCLINATION": 97.4492,
    "RA_OF_ASC_NODE": 230.2085,
    "ARG_OF_PERICENTER": 211.8082,
    "MEAN_ANOMALY": 148.2955,
    "EPHEMERIS_TYPE": 0,
    "CLASSIFICATION_TYPE": "U",
    "NORAD_CAT_ID": 53815,
    "ELEMENT_SET_NO": 999,
    "REV_AT_EPOCH": 20744,
    "BSTAR": 0.00044779,
    "MEAN_MOTION_DOT": 0.00017684,
    "MEAN_MOTION_DDOT": 0
   }
  },
  {
   "norad": 62406,
   "name": "STRIX-2",
   "intl": "2024-248A",
   "group": "sar",
   "gcat": {
    "class": "B",
    "category": "IMG-R",
    "owner": "SYNSP",
    "state": "J"
   },
   "omm": {
    "OBJECT_NAME": "STRIX-2",
    "OBJECT_ID": "2024-248A",
    "EPOCH": "2026-06-17T04:56:18.777696",
    "MEAN_MOTION": 15.08904932,
    "ECCENTRICITY": 0.0015043,
    "INCLINATION": 97.6296,
    "RA_OF_ASC_NODE": 123.8462,
    "ARG_OF_PERICENTER": 342.7503,
    "MEAN_ANOMALY": 17.3212,
    "EPHEMERIS_TYPE": 0,
    "CLASSIFICATION_TYPE": "U",
    "NORAD_CAT_ID": 62406,
    "ELEMENT_SET_NO": 999,
    "REV_AT_EPOCH": 8159,
    "BSTAR": 0.00031563,
    "MEAN_MOTION_DOT": 0.00004925,
    "MEAN_MOTION_DDOT": 0
   }
  },
  {
   "norad": 59224,
   "name": "STRIX-3",
   "intl": "2024-047A",
   "group": "sar",
   "gcat": {
    "class": "B",
    "category": "IMG-R",
    "owner": "SYNSP",
    "state": "J"
   },
   "omm": {
    "OBJECT_NAME": "STRIX-3",
    "OBJECT_ID": "2024-047A",
    "EPOCH": "2026-06-17T04:16:52.209120",
    "MEAN_MOTION": 15.19370861,
    "ECCENTRICITY": 0.0015113,
    "INCLINATION": 97.6624,
    "RA_OF_ASC_NODE": 143.8535,
    "ARG_OF_PERICENTER": 66.9265,
    "MEAN_ANOMALY": 293.356,
    "EPHEMERIS_TYPE": 0,
    "CLASSIFICATION_TYPE": "U",
    "NORAD_CAT_ID": 59224,
    "ELEMENT_SET_NO": 999,
    "REV_AT_EPOCH": 12474,
    "BSTAR": 0.00030648,
    "MEAN_MOTION_DOT": 0.0000643,
    "MEAN_MOTION_DDOT": 0
   }
  },
  {
   "norad": 60352,
   "name": "STRIX-4",
   "intl": "2024-137A",
   "group": "sar",
   "gcat": {
    "class": "B",
    "category": "IMG-R",
    "owner": "SYNSP",
    "state": "J"
   },
   "omm": {
    "OBJECT_NAME": "STRIX-4",
    "OBJECT_ID": "2024-137A",
    "EPOCH": "2026-06-17T00:34:54.584832",
    "MEAN_MOTION": 15.32582461,
    "ECCENTRICITY": 0.0018439,
    "INCLINATION": 43.0161,
    "RA_OF_ASC_NODE": 285.9391,
    "ARG_OF_PERICENTER": 302.0158,
    "MEAN_ANOMALY": 57.8904,
    "EPHEMERIS_TYPE": 0,
    "CLASSIFICATION_TYPE": "U",
    "NORAD_CAT_ID": 60352,
    "ELEMENT_SET_NO": 999,
    "REV_AT_EPOCH": 10399,
    "BSTAR": 0.00050792,
    "MEAN_MOTION_DOT": 0.00016158,
    "MEAN_MOTION_DDOT": 0
   }
  },
  {
   "norad": 65971,
   "name": "STRIX-5",
   "intl": "2025-229A",
   "group": "sar",
   "gcat": {
    "class": "B",
    "category": "IMG-R",
    "owner": "SYNSP",
    "state": "J"
   },
   "omm": {
    "OBJECT_NAME": "STRIX-5",
    "OBJECT_ID": "2025-229A",
    "EPOCH": "2026-06-16T15:18:47.354112",
    "MEAN_MOTION": 15.04416477,
    "ECCENTRICITY": 0.0036073,
    "INCLINATION": 41.9295,
    "RA_OF_ASC_NODE": 290.442,
    "ARG_OF_PERICENTER": 47.3966,
    "MEAN_ANOMALY": 312.9894,
    "EPHEMERIS_TYPE": 0,
    "CLASSIFICATION_TYPE": "U",
    "NORAD_CAT_ID": 65971,
    "ELEMENT_SET_NO": 999,
    "REV_AT_EPOCH": 3689,
    "BSTAR": 0.00026677,
    "MEAN_MOTION_DOT": 0.00003648,
    "MEAN_MOTION_DDOT": 0
   }
  }
 ]
}
