SMOS                    
1 36036U 09059A   26168.05053753  .00000187  00000+0  73438-4 0  9996
2 36036  98.4424 355.3874 0001326  88.5935 271.5405 14.39772531873437
SRMSAT                  
1 37841U 11058D   26168.08915448  .00000356  00000+0  49079-4 0  9996
2 37841  19.9723  60.0600 0011791 202.5356 269.2197 14.11575544757800
SPOT 6                  
1 38755U 12047A   26168.19782880  .00000117  00000+0  35097-4 0  9994
2 38755  98.2122 235.5065 0001496  93.1055 267.0316 14.58562801733056
SPOT 7                  
1 40053U 14034A   26168.18157803  .00000285  00000+0  67318-4 0  9993
2 40053  98.0630 230.6732 0001206  92.4183 267.7156 14.60958328637139
SMAP                    
1 40376U 15003A   26168.14826875  .00000335  00000+0  73834-4 0  9992
2 40376  98.1276 175.2433 0001328  96.8431 263.2922 14.63366622607610
STRIX-1                 
1 53815U 22113A   26168.18427419  .00017684  00000+0  44779-3 0  9999
2 53815  97.4492 230.2085 0003460 211.8082 148.2955 15.39796590207449
STRIX-3                 
1 59224U 24047A   26168.17838205  .00006430  00000+0  30648-3 0  9992
2 59224  97.6624 143.8535 0015113  66.9265 293.3560 15.19370861124749
STRIX-4                 
1 60352U 24137A   26168.02424288  .00016158  00000+0  50792-3 0  9992
2 60352  43.0161 285.9391 0018439 302.0158  57.8904 15.32582461103996
STRIX-2                 
1 62406U 24248A   26168.20577289  .00004925  00000+0  31563-3 0  9991
2 62406  97.6296 123.8462 0015043 342.7503  17.3212 15.08904932 81592
STRIX-5                 
1 65971U 25229A   26167.63804808  .00003648  00000+0  26677-3 0  9998
2 65971  41.9295 290.4420 0036073  47.3966 312.9894 15.04416477 36896
